LUCAS (JDRS-1)          
1 47202U 20089A   24225.28729826 -.00000225  00000+0  00000+0 0  9991
2 47202   0.0170 103.8814 0002788  27.5696  23.9867  1.00272883 13662
SXM-7                   
1 47240U 20096A   24224.41511670 -.00000193  00000+0  00000+0 0  9995
2 47240   0.0135 117.8860 0004214 357.8829 268.8399  1.00261224   689
CMS-01                  
1 47256U 20099A   24225.50813358 -.00000154  00000+0  00000+0 0  9991
2 47256   0.0398  90.4685 0004837 171.5111 325.3816  1.00270737 13444
TURKSAT 5A              
1 47306U 21001A   24224.90214617  .00000165  00000+0  00000+0 0  9998
2 47306   0.0203  95.3832 0000226 328.1149 253.0350  1.00272199 13200
TIANTONG-1 3            
1 47321U 21003A   24225.55611098 -.00000140  00000+0  00000+0 0  9997
2 47321   2.7662 313.2519 0003676 211.3011  78.6420  1.00270681 13205
TJS-6                   
1 47613U 21010A   24225.64685396  .00000054  00000+0  00000+0 0  9994
2 47613   0.3125 268.7557 0003246 284.4309 179.7762  1.00269353 13056
SBIRS GEO-5 (USA 315)   
1 48618U 21042A   24224.74372692  .00000133  00000+0  00000+0 0  9995
2 48618   6.0619 325.7529 0001783 183.9146  99.6577  1.00273060 11997
FENGYUN 4B              
1 48808U 21047A   24225.53181847 -.00000320  00000+0  00000+0 0  9998
2 48808   0.1289  76.4525 0005492  37.0047 144.2781  1.00274632 11824
SXM-8                   
1 48838U 21049A   24224.89216181 -.00000194  00000+0  00000+0 0  9990
2 48838   0.0160  11.8166 0006260  26.4238 158.5970  1.00273635 11860
TIANLIAN 1-05           
1 49011U 21063A   24225.54314462  .00000119  00000+0  00000+0 0  9990
2 49011   0.1679 292.5295 0003199 227.9417  13.2830  1.00272297 11322
STAR ONE D2             
1 49055U 21069A   24225.46820913 -.00000253  00000+0  00000+0 0  9998
2 49055   0.0271  93.4500 0002765  58.4490 268.0364  1.00272578 11177
EUTELSAT QUANTUM        
1 49056U 21069B   24225.47782326  .00000137  00000+0  00000+0 0  9995
2 49056   0.0387 278.7306 0002506 216.1928  46.2002  1.00274272 11178
ZHONGXING-2E            
1 49062U 21071A   24225.65143941 -.00000281  00000+0  00000+0 0  9990
2 49062   0.0152 149.0935 0000876  21.9113 123.1581  1.00273126 11285
TJS-7                   
1 49115U 21077A   24225.51061414 -.00000113  00000+0  00000+0 0  9998
2 49115   0.4510  86.8568 0001742  67.9031 251.0610  1.00272515  2812
CHINASAT 9B             
1 49125U 21080A   24225.52869882 -.00000301  00000+0  00000+0 0  9998
2 49125   0.0359  98.3564 0003180  59.6934  95.1189  1.00268482 10895
SHIJIAN-21 (SJ-21)      
1 49330U 21094A   24225.62935807 -.00000235  00000+0  00000+0 0  9999
2 49330   9.9137  44.8365 0079444  35.1036 253.9008  1.00296610 10504
SES-17                  
1 49332U 21095A   24225.45502332 -.00000261  00000+0  00000+0 0  9995
2 49332   0.0157  83.8203 0001101  49.1690 285.1040  1.00269575 11087
SYRACUSE 4A             
1 49333U 21095B   24225.26279409  .00000146  00000+0  00000+0 0  9992
2 49333   0.0144 120.5682 0001462  17.9051 322.8331  1.00271032 11205
QZS-1R                  
1 49336U 21096A   24217.59575160 -.00000318  00000+0  00000+0 0  9998
2 49336  36.0403  89.7920 0759158 272.4058 296.0519  1.00241649 10179
ZHONGXING-1D            
1 49505U 21114A   24225.60081573 -.00000325  00000+0  00000+0 0  9996
2 49505   0.0560 256.6800 0001255 354.3459  56.9512  1.00269779 10076
STPSAT-6                
1 49817U 21118A   24225.63445913 -.00000034  00000+0  00000+0 0  9998
2 49817   0.0085 137.9956 0000250   7.6609 292.6611  1.00271157  9807
LDPE-1                  
1 49818U 21118B   24225.61186438 -.00000018  00000+0  00000+0 0  9993
2 49818   2.4174  87.3312 0000141 242.8441  14.4485  1.00557114  9879
EXPRESS AMU-7           
1 50001U 21123A   24224.70656275 -.00000232  00000+0  00000+0 0  9993
2 50001   0.0075  52.0095 0000122 215.6193  92.3695  1.00272416  9784
EXPRESS AMU-3           
1 50002U 21123B   24224.82288054 -.00000311  00000+0  00000+0 0  9991
2 50002   0.0107  69.8360 0000130 212.5848  77.5778  1.00271522   262
TIANLIAN 2-02           
1 50005U 21124A   24225.64273538 -.00000002  00000+0  00000+0 0  9994
2 50005   0.5303 273.2704 0001212 253.5410 197.1070  1.00272560  9865
TURKSAT 5B              
1 50212U 21126A   24224.83278916  .00000157  00000+0  00000+0 0  9991
2 50212   0.0687 341.9543 0001719   7.6835 312.9297  1.00273542  9533
INMARSAT 6-F1           
1 50319U 21128A   24225.34178767 -.00000161  00000+0  00000+0 0  9997
2 50319   0.0035 281.1891 0000257 172.7236  74.1478  1.00271568  9505
SHIYAN 12 01 (SY-12 01) 
1 50321U 21129A   24225.63147382 -.00000074  00000+0  00000+0 0  9995
2 50321   1.9252  89.9745 0002571  89.7562 168.2834  1.00435235  9741
SHIYAN 12 02 (SY-12 02) 
1 50322U 21129B   24225.64665801 -.00000207  00000+0  00000+0 0  9996
2 50322   1.9249  89.9887 0001908 141.5018  56.4621  1.00069141  9742
TJS-9                   
1 50574U 21135A   24225.60396635 -.00000287  00000+0  00000+0 0  9992
2 50574   0.0257 118.7020 0004852  38.7125 158.7389  1.00274684  9687
USA 324                 
1 51280U 22006A   24212.47994906 -.00000290  00000+0  00000+0 0  9995
2 51280   1.8482  87.9234 0003716   6.2404 170.3382  1.00113997   518
USA 325                 
1 51281U 22006B   24212.08382896 -.00000141  00000+0  00000+0 0  9997
2 51281   0.4384  86.5889 0000834 179.1587 155.9483  1.00130418   514
GOES 18                 
1 51850U 22021A   24225.15497281  .00000108  00000+0  00000+0 0  9995
2 51850   0.0033 145.0283 0000400 346.8848 107.9665  1.00273620   437
ZHONGXING-6D            
1 52255U 22038A   24224.76179409 -.00000343  00000+0  00000+0 0  9990
2 52255   0.0704 262.2757 0001606 296.3912 161.3270  1.00274232  8658
NILESAT 301             
1 52817U 22061A   24225.32386101 -.00000047  00000+0  00000+0 0  9993
2 52817   0.0551 330.0360 0002784 113.7574 347.0184  1.00271374  7975
CMS-02 (GSAT 24)        
1 52903U 22067A   24225.12710025 -.00000154  00000+0  00000+0 0  9998
2 52903   0.0490 272.8421 0007737 190.1863 346.7972  1.00272289  7840
MEASAT 3D               
1 52904U 22067B   24225.64787265 -.00000231  00000+0  00000+0 0  9992
2 52904   0.0575 291.6193 0000335 251.5523 103.1378  1.00273379  7893
SES-22                  
1 52933U 22071A   24225.15453771  .00000115  00000+0  00000+0 0  9997
2 52933   0.0586 273.7515 0001022 267.8610  56.1201  1.00276923   755
WFOV (USA 332)          
1 52940U 22073A   24225.59688012 -.00000353  00000+0  00000+0 0  9998
2 52940   1.9665  87.4481 0001834 356.2729 211.9815  1.00270408  7614
TIANLIAN 2-03           
1 53100U 22078A   24224.85328645  .00000083  00000+0  00000+0 0  9992
2 53100   1.0866 278.4662 0001812 217.5563 142.4815  1.00272597  7799
SBIRS GEO-6 (USA 336)   
1 53355U 22092A   24225.60385878 -.00000276  00000+0  00000+0 0  9990
2 53355   4.4611 311.2771 0002265 180.4348 186.2069  1.00272160  7484
EUTELSAT KONNECT VHTS   
1 53765U 22110A   24225.38938201  .00000028  00000+0  00000+0 0  9999
2 53765   0.0479  95.4005 0002875  31.7024 337.1077  1.00269714   143
ZHONGXING-1E            
1 53813U 22112A   24225.55611098 -.00000139  00000+0  00000+0 0  9990
2 53813   0.0354 273.6526 0000699 256.0270  73.4366  1.00271147  7099
SES-20                  
1 53960U 22123A   24225.37948976 -.00000090  00000+0  00000+0 0  9999
2 53960   0.0254 217.7117 0002346 246.3813 250.7344  1.00275953  6782
SES-21                  
1 53961U 22123B   24225.61704885  .00000081  00000+0  00000+0 0  9995
2 53961   0.0188  36.2559 0000987 107.7256 268.6873  1.00270733   468
GALAXY 33 (G-33)        
1 54026U 22128A   24225.61577595  .00000090  00000+0  00000+0 0  9999
2 54026   0.0181  97.7713 0002021  39.7505 272.6959  1.00272736  6999
GALAXY 34 (G-34)        
1 54027U 22128B   24225.61817110  .00000070  00000+0  00000+0 0  9998
2 54027   0.0221  84.5418 0001487  59.0116 271.5103  1.00271551  7151
ANGOSAT 2               
1 54033U 22131A   24224.97211235  .00000147  00000+0  00000+0 0  9998
2 54033   0.0215 191.5717 0000132 253.9997 248.3014  1.00273749  6704
EUTELSAT HOTBIRD 13F    
1 54048U 22134A   24225.38382741  .00000098  00000+0  00000+0 0  9999
2 54048   0.0666 286.4343 0002031  80.4069 105.6518  1.00271358  6698
LDPE-2                  
1 54219U 22144A   24225.47378047 -.00000262  00000+0  00000+0 0  9998
2 54219   3.9483  65.0495 0000166 205.1216 161.2484  0.99991511  5060
EUTELSAT HOTBIRD 13G    
1 54225U 22146A   24225.11317663  .00000098  00000+0  00000+0 0  9991
2 54225   0.0561 255.9684 0002140 276.7747 202.0342  1.00273763  6455
ZHONGXING-19            
1 54230U 22148A   24225.61156807 -.00000068  00000+0  00000+0 0  9993
2 54230   0.0338 273.5806 0006374 311.8002 119.7198  1.00272255  6619
GALAXY 31 (G-31)        
1 54243U 22153A   24225.62894767  .00000025  00000+0  00000+0 0  9990
2 54243   0.0135 115.5221 0001439  21.4080 290.0469  1.00272113   410
GALAXY 32 (G-32)        
1 54244U 22153B   24225.45618948 -.00000163  00000+0  00000+0 0  9991
2 54244   0.0107  63.9634 0001135   8.0950 322.5540  1.00272297  6380
EUTELSAT 10B            
1 54259U 22157A   24225.38382741  .00000079  00000+0  00000+0 0  9997
2 54259   0.0495  94.3835 0000732 349.6101  25.4973  1.00270903  6270
GALAXY 35 (G-35)        
1 54741U 22170A   24225.45458227 -.00000151  00000+0  00000+0 0  9991
2 54741   0.0161 109.3619 0002074  32.6236 249.9472  1.00271924  6138
GALAXY 36 (G-36)        
1 54742U 22170B   24222.14146433 -.00000180  00000+0  00000+0 0  9990
2 54742   0.0122 105.7600 0002939  12.7429 161.5383  1.00272894  5988
METEOSAT-12 (MTG-I1)    
1 54743U 22170C   24225.32516634  .00000004  00000+0  00000+0 0  9992
2 54743   0.5847  47.2949 0002041  76.7768 313.8538  1.00275270  6227
SHIJIAN-23 (SJ-23)      
1 55131U 23002A   24225.54827896  .00000140  00000+0  00000+0 0  9999
2 55131   1.9737  87.0496 0000512  40.0923  73.8611  1.00465965  5753
